[{"OBJECT_NAME":"KEPLER-21","OBJECT_ID":"2023-054AS","EPOCH":"2026-03-09T19:23:14.157600","MEAN_MOTION":15.73096759,"ECCENTRICITY":0.00048854,"INCLINATION":97.2962,"RA_OF_ASC_NODE":342.626,"ARG_OF_PERICENTER":55.6816,"MEAN_ANOMALY":304.491,"EPHEMERIS_TYPE":0,"CLASSIFICATION_TYPE":"U","NORAD_CAT_ID":56218,"ELEMENT_SET_NO":999,"REV_AT_EPOCH":16349,"BSTAR":0.0005813485,"MEAN_MOTION_DOT":0.00079942,"MEAN_MOTION_DDOT":0},{"OBJECT_NAME":"STARLINK-11352 [DTC]","OBJECT_ID":"2025-024B","EPOCH":"2026-03-09T08:04:53.038272","MEAN_MOTION":15.71173099,"ECCENTRICITY":0.00021492,"INCLINATION":42.9988,"RA_OF_ASC_NODE":183.3571,"ARG_OF_PERICENTER":231.8768,"MEAN_ANOMALY":128.1906,"EPHEMERIS_TYPE":0,"CLASSIFICATION_TYPE":"U","NORAD_CAT_ID":62880,"ELEMENT_SET_NO":999,"REV_AT_EPOCH":6341,"BSTAR":0.0028461214,"MEAN_MOTION_DOT":0.00387688,"MEAN_MOTION_DDOT":0}]
