KEPLER-21               
1 56218U 23054AS  26068.80780274  .00079942  00000+0  58135-3 0  9999
2 56218  97.2962 342.6260 0004885  55.6816 304.4910 15.73096759163494
STARLINK-11352 [DTC]    
1 62880U 25024B   26068.33672498  .00387688  00000+0  28461-2 0  9993
2 62880  42.9988 183.3571 0002149 231.8768 128.1906 15.71173099 63419
